{"type": "FeatureCollection", "features": [{"type": "Feature", "properties": {"norad_id": 22490, "name": "SCD 1", "group": "resource", "lat": 8.767085241232467, "lon": 29.665253295753356, "alt_km": 744.9734881475797, "timestamp": "2025-12-20T18:51:31.374317+00:00", "meta": {"OBJECT_NAME": "SCD 1", "OBJECT_ID": "1993-009B", "EPOCH": "2025-12-20T02:06:40.199328", "MEAN_MOTION": 14.46003712, "ECCENTRICITY": 0.00420998, "INCLINATION": 24.9683, "RA_OF_ASC_NODE": 233.3258, "ARG_OF_PERICENTER": 42.7923, "MEAN_ANOMALY": 75.5892, "EPHEMERIS_TYPE": 0, "CLASSIFICATION_TYPE": "U", "NORAD_CAT_ID": 22490, "ELEMENT_SET_NO": 999, "REV_AT_EPOCH": 73516, "BSTAR": 6.2477864e-05, "MEAN_MOTION_DOT": 4.13e-06, "MEAN_MOTION_DDOT": 0}, "tle": {"line1": "1 22490U 93009B   25354.08796527  .00000413  00000+0  62478-4 0  9999", "line2": "2 22490  24.9683 233.3258 0042099  42.7923  75.5892 14.46003712735164"}}, "geometry": {"type": "Point", "coordinates": [29.665253295753356, 8.767085241232467]}}, {"type": "Feature", "properties": {"norad_id": 25397, "name": "TECHSAT 1B (GO-32)", "group": "resource", "lat": 3.947454741862544, "lon": -22.442340495750376, "alt_km": 811.96491199502, "timestamp": "2025-12-20T18:51:31.374365+00:00", "meta": {"OBJECT_NAME": "TECHSAT 1B (GO-32)", "OBJECT_ID": "1998-043D", "EPOCH": "2025-12-20T12:05:47.212224", "MEAN_MOTION": 14.24379082, "ECCENTRICITY": 0.00018144, "INCLINATION": 98.9927, "RA_OF_ASC_NODE": 337.8955, "ARG_OF_PERICENTER": 45.0313, "MEAN_ANOMALY": 315.1012, "EPHEMERIS_TYPE": 0, "CLASSIFICATION_TYPE": "U", "NORAD_CAT_ID": 25397, "ELEMENT_SET_NO": 999, "REV_AT_EPOCH": 42589, "BSTAR": 3.7447848e-05, "MEAN_MOTION_DOT": 4e-07, "MEAN_MOTION_DDOT": 0}, "tle": {"line1": "1 25397U 98043D   25354.50401866  .00000040  00000+0  37448-4 0  9992", "line2": "2 25397  98.9927 337.8955 0001814  45.0313 315.1012 14.24379082425893"}}, "geometry": {"type": "Point", "coordinates": [-22.442340495750376, 3.947454741862544]}}, {"type": "Feature", "properties": {"norad_id": 25504, "name": "SCD 2", "group": "resource", "lat": 2.6330821508853224, "lon": -93.38183330415146, "alt_km": 746.8293250474981, "timestamp": "2025-12-20T18:51:31.374381+00:00", "meta": {"OBJECT_NAME": "SCD 2", "OBJECT_ID": "1998-060A", "EPOCH": "2025-12-20T14:51:05.311872", "MEAN_MOTION": 14.45427239, "ECCENTRICITY": 0.00169754, "INCLINATION": 24.9946, "RA_OF_ASC_NODE": 93.3121, "ARG_OF_PERICENTER": 36.8974, "MEAN_ANOMALY": 346.0798, "EPHEMERIS_TYPE": 0, "CLASSIFICATION_TYPE": "U", "NORAD_CAT_ID": 25504, "ELEMENT_SET_NO": 999, "REV_AT_EPOCH": 43446, "BSTAR": 4.6832845e-05, "MEAN_MOTION_DOT": 3.49e-06, "MEAN_MOTION_DDOT": 0}, "tle": {"line1": "1 25504U 98060A   25354.61881148  .00000349  00000+0  46833-4 0  9998", "line2": "2 25504  24.9946  93.3121 0016975  36.8974 346.0798 14.45427239434465"}}, "geometry": {"type": "Point", "coordinates": [-93.38183330415146, 2.6330821508853224]}}, {"type": "Feature", "properties": {"norad_id": 25757, "name": "DLR-TUBSAT", "group": "resource", "lat": -47.64940616810906, "lon": -10.831157015574178, "alt_km": 732.856793398867, "timestamp": "2025-12-20T18:51:31.374394+00:00", "meta": {"OBJECT_NAME": "DLR-TUBSAT", "OBJECT_ID": "1999-029B", "EPOCH": "2025-12-17T13:22:10.787520", "MEAN_MOTION": 14.52359578, "ECCENTRICITY": 0.00141996, "INCLINATION": 98.6566, "RA_OF_ASC_NODE": 336.2196, "ARG_OF_PERICENTER": 177.8976, "MEAN_ANOMALY": 182.2281, "EPHEMERIS_TYPE": 0, "CLASSIFICATION_TYPE": "U", "NORAD_CAT_ID": 25757, "ELEMENT_SET_NO": 999, "REV_AT_EPOCH": 40688, "BSTAR": 3.7650132e-05, "MEAN_MOTION_DOT": 1.05e-06, "MEAN_MOTION_DDOT": 0}, "tle": {"line1": "1 25757U 99029B   25351.55706930  .00000105  00000+0  37650-4 0  9996", "line2": "2 25757  98.6566 336.2196 0014199 177.8976 182.2281 14.52359578406886"}}, "geometry": {"type": "Point", "coordinates": [-10.831157015574178, -47.64940616810906]}}, {"type": "Feature", "properties": {"norad_id": 25994, "name": "TERRA", "group": "resource", "lat": -78.43033764047227, "lon": -177.0353812774101, "alt_km": 700.075241887851, "timestamp": "2025-12-20T18:51:31.374407+00:00", "meta": {"OBJECT_NAME": "TERRA", "OBJECT_ID": "1999-068A", "EPOCH": "2025-12-20T13:13:34.824864", "MEAN_MOTION": 14.60909835, "ECCENTRICITY": 0.00035383, "INCLINATION": 97.9737, "RA_OF_ASC_NODE": 45.9485, "ARG_OF_PERICENTER": 79.0674, "MEAN_ANOMALY": 28.9885, "EPHEMERIS_TYPE": 0, "CLASSIFICATION_TYPE": "U", "NORAD_CAT_ID": 25994, "ELEMENT_SET_NO": 999, "REV_AT_EPOCH": 38352, "BSTAR": 7.318996e-05, "MEAN_MOTION_DOT": 3.14e-06, "MEAN_MOTION_DDOT": 0}, "tle": {"line1": "1 25994U 99068A   25354.55109751  .00000314  00000+0  73190-4 0  9994", "line2": "2 25994  97.9737  45.9485 0003538  79.0674  28.9885 14.60909835383526"}}, "geometry": {"type": "Point", "coordinates": [-177.0353812774101, -78.43033764047227]}}, {"type": "Feature", "properties": {"norad_id": 27004, "name": "MAROC-TUBSAT", "group": "resource", "lat": 30.460770213539156, "lon": -10.799585257292266, "alt_km": 996.8533876449101, "timestamp": "2025-12-20T18:51:31.374419+00:00", "meta": {"OBJECT_NAME": "MAROC-TUBSAT", "OBJECT_ID": "2001-056D", "EPOCH": "2025-12-20T11:25:13.051200", "MEAN_MOTION": 13.70253266, "ECCENTRICITY": 0.00191788, "INCLINATION": 99.7915, "RA_OF_ASC_NODE": 163.0563, "ARG_OF_PERICENTER": 239.6047, "MEAN_ANOMALY": 181.4763, "EPHEMERIS_TYPE": 0, "CLASSIFICATION_TYPE": "U", "NORAD_CAT_ID": 27004, "ELEMENT_SET_NO": 999, "REV_AT_EPOCH": 20171, "BSTAR": 1.6498076e-05, "MEAN_MOTION_DOT": -3.2e-07, "MEAN_MOTION_DDOT": 0}, "tle": {"line1": "1 27004U 01056D   25354.47584550 -.00000032  00000+0  16498-4 0  9999", "line2": "2 27004  99.7915 163.0563 0019178 239.6047 181.4763 13.70253266201712"}}, "geometry": {"type": "Point", "coordinates": [-10.799585257292266, 30.460770213539156]}}, {"type": "Feature", "properties": {"norad_id": 27424, "name": "AQUA", "group": "resource", "lat": 16.362886225955904, "lon": 138.28390905850767, "alt_km": 687.3523378061591, "timestamp": "2025-12-20T18:51:31.374431+00:00", "meta": {"OBJECT_NAME": "AQUA", "OBJECT_ID": "2002-022A", "EPOCH": "2025-12-19T19:17:33.406368", "MEAN_MOTION": 14.61824191, "ECCENTRICITY": 0.00013487, "INCLINATION": 98.4046, "RA_OF_ASC_NODE": 314.798, "ARG_OF_PERICENTER": 112.3467, "MEAN_ANOMALY": 286.6091, "EPHEMERIS_TYPE": 0, "CLASSIFICATION_TYPE": "U", "NORAD_CAT_ID": 27424, "ELEMENT_SET_NO": 999, "REV_AT_EPOCH": 25706, "BSTAR": 0.00015509968, "MEAN_MOTION_DOT": 7.25e-06, "MEAN_MOTION_DDOT": 0}, "tle": {"line1": "1 27424U 02022A   25353.80385887  .00000725  00000+0  15510-3 0  9998", "line2": "2 27424  98.4046 314.7980 0001348 112.3467 286.6091 14.61824191257063"}}, "geometry": {"type": "Point", "coordinates": [138.28390905850767, 16.362886225955904]}}, {"type": "Feature", "properties": {"norad_id": 28051, "name": "IRS-P6 (RESOURCESAT-1)", "group": "resource", "lat": 2.5537534563540785, "lon": 34.451045340037695, "alt_km": 815.5381381445577, "timestamp": "2025-12-20T18:51:31.374441+00:00", "meta": {"OBJECT_NAME": "IRS-P6 (RESOURCESAT-1)", "OBJECT_ID": "2003-046A", "EPOCH": "2025-12-20T14:32:22.067808", "MEAN_MOTION": 14.36079057, "ECCENTRICITY": 0.00646317, "INCLINATION": 98.217, "RA_OF_ASC_NODE": 34.6487, "ARG_OF_PERICENTER": 157.127, "MEAN_ANOMALY": 356.0199, "EPHEMERIS_TYPE": 0, "CLASSIFICATION_TYPE": "U", "NORAD_CAT_ID": 28051, "ELEMENT_SET_NO": 999, "REV_AT_EPOCH": 15489, "BSTAR": 0.00014287774, "MEAN_MOTION_DOT": 3.85e-06, "MEAN_MOTION_DDOT": 0}, "tle": {"line1": "1 28051U 03046A   25354.60581097  .00000385  00000+0  14288-3 0  9995", "line2": "2 28051  98.2170  34.6487 0064631 157.1270 356.0199 14.36079057154892"}}, "geometry": {"type": "Point", "coordinates": [34.451045340037695, 2.5537534563540785]}}, {"type": "Feature", "properties": {"norad_id": 28220, "name": "SHIYAN-1 (SY-1)", "group": "resource", "lat": 22.175467882497173, "lon": 53.55830713673089, "alt_km": 480.59161198016045, "timestamp": "2025-12-20T18:51:31.374452+00:00", "meta": {"OBJECT_NAME": "SHIYAN-1 (SY-1)", "OBJECT_ID": "2004-012A", "EPOCH": "2025-12-20T10:54:15.638688", "MEAN_MOTION": 15.28330123, "ECCENTRICITY": 0.00052308, "INCLINATION": 97.893, "RA_OF_ASC_NODE": 56.4489, "ARG_OF_PERICENTER": 293.6442, "MEAN_ANOMALY": 66.4247, "EPHEMERIS_TYPE": 0, "CLASSIFICATION_TYPE": "U", "NORAD_CAT_ID": 28220, "ELEMENT_SET_NO": 999, "REV_AT_EPOCH": 18374, "BSTAR": 0.00035174832, "MEAN_MOTION_DOT": 9.629e-05, "MEAN_MOTION_DDOT": 0}, "tle": {"line1": "1 28220U 04012A   25354.45434767  .00009629  00000+0  35175-3 0  9999", "line2": "2 28220  97.8930  56.4489 0005230 293.6442  66.4247 15.28330123183748"}}, "geometry": {"type": "Point", "coordinates": [53.55830713673089, 22.175467882497173]}}, {"type": "Feature", "properties": {"norad_id": 28376, "name": "AURA", "group": "resource", "lat": -81.66640914668389, "lon": 37.68134629488551, "alt_km": 698.3754507085769, "timestamp": "2025-12-20T18:51:31.374464+00:00", "meta": {"OBJECT_NAME": "AURA", "OBJECT_ID": "2004-026A", "EPOCH": "2025-12-20T14:20:27.024000", "MEAN_MOTION": 14.60962977, "ECCENTRICITY": 0.00013691, "INCLINATION": 98.3195, "RA_OF_ASC_NODE": 304.861, "ARG_OF_PERICENTER": 93.0638, "MEAN_ANOMALY": 267.0719, "EPHEMERIS_TYPE": 0, "CLASSIFICATION_TYPE": "U", "NORAD_CAT_ID": 28376, "ELEMENT_SET_NO": 999, "REV_AT_EPOCH": 14013, "BSTAR": 0.00015277441, "MEAN_MOTION_DOT": 7.01e-06, "MEAN_MOTION_DDOT": 0}, "tle": {"line1": "1 28376U 04026A   25354.59753500  .00000701  00000+0  15277-3 0  9993", "line2": "2 28376  98.3195 304.8610 0001369  93.0638 267.0719 14.60962977140135"}}, "geometry": {"type": "Point", "coordinates": [37.68134629488551, -81.66640914668389]}}]}